DMSP 5D-3 F16 (USA 172) 
1 28054U 03048A   26162.93117231 -.00000006  00000+0  20681-4 0  9995
2 28054  98.9891 186.7246 0007491 153.8144 272.7669 14.14482633168747
METEOSAT-9 (MSG-2)      
1 28912U 05049B   26162.84606965  .00000133  00000+0  00000+0 0  9996
2 28912   9.3488  54.2186 0001583 346.4858 209.7216  1.00269859  6943
DMSP 5D-3 F17 (USA 191) 
1 29522U 06050A   26162.93705824  .00000021  00000+0  33208-4 0  9998
2 29522  98.7378 169.6145 0011285  72.8256 287.4152 14.14992298 11687
FENGYUN 3A              
1 32958U 08026A   26162.83154284  .00000042  00000+0  40218-4 0  9999
2 32958  98.6884 103.7650 0009370 137.8042 222.3857 14.19570092934641
GOES 14                 
1 35491U 09033A   26162.93701407 -.00000255  00000+0  00000+0 0  9996
2 35491   1.6758  83.1042 0001781   8.7469 290.5986  1.00112587  6538
DMSP 5D-3 F18 (USA 210) 
1 35951U 09057A   26162.90808755  .00000229  00000+0  14190-3 0  9993
2 35951  98.9035 143.6886 0009844 266.3326  93.6722 14.14893862858846
EWS-G2 (GOES 15)        
1 36411U 10008A   26162.92098067  .00000034  00000+0  00000+0 0  9997
2 36411   1.2626  82.9393 0005379  40.6032 171.9199  1.00275533 59587
COMS 1                  
1 36744U 10032A   26154.99142485 -.00000334  00000+0  00000+0 0  9999
2 36744   4.7750  75.5286 0001016   4.5847 297.3769  1.00270643 50953
FENGYUN 3B              
1 37214U 10059A   26163.00106024 -.00000253  00000+0 -10743-3 0  9992
2 37214  98.9626 208.9935 0021629 198.9190 228.2223 14.14838523806691
SUOMI NPP               
1 37849U 11061A   26162.98360067  .00000039  00000+0  39310-4 0  9997
2 37849  98.7954 103.8952 0001821  18.5029 341.6213 14.19516304757700
METEOSAT-10 (MSG-3)     
1 38552U 12035B   26162.90833498  .00000009  00000+0  00000+0 0  9992
2 38552   4.6585  61.0408 0001459 330.6381 195.8375  1.00275993 50802
METOP-B                 
1 38771U 12049A   26162.91027348  .00000082  00000+0  57530-4 0  9996
2 38771  98.6506 214.5146 0002552  32.3553 327.7780 14.21431261712515
INSAT-3D                
1 39216U 13038B   26162.93398073 -.00000324  00000+0  00000+0 0  9993
2 39216   1.9118  82.6035 0000619 312.0541 331.3729  1.00271777 47022
FENGYUN 3C              
1 39260U 13052A   26162.95532124  .00000073  00000+0  58030-4 0  9998
2 39260  98.4976 137.0704 0015503  41.9911 318.2450 14.15753914657827
METEOR-M 2              
1 40069U 14037A   26162.93673889 -.00000224  00000+0 -83383-4 0  9992
2 40069  98.5107 138.8609 0006929  57.2468 302.9377 14.21458963618575
HIMAWARI-8              
1 40267U 14060A   26162.93623407 -.00000260  00000+0  00000+0 0  9998
2 40267   0.0141 332.2657 0000723 140.6153 265.0941  1.00269474 42700
FENGYUN 2G              
1 40367U 14090A   26162.94580934 -.00000290  00000+0  00000+0 0  9993
2 40367   5.6243  72.8813 0003778 153.2581 114.2880  1.00274837 41945
METEOSAT-11 (MSG-4)     
1 40732U 15034A   26162.91024166  .00000079  00000+0  00000+0 0  9999
2 40732   3.1888  71.1408 0001751   7.8685 158.4410  1.00278699  7164
ELEKTRO-L 2             
1 41105U 15074A   26161.98080809 -.00000103  00000+0  00000+0 0  9999
2 41105   6.6770  70.6004 0000814 270.8793 256.4532  1.00271253 38442
SENTINEL-3A             
1 41335U 16011A   26162.95682227  .00000075  00000+0  48869-4 0  9993
2 41335  98.6249 230.4154 0001375 103.4288 256.7046 14.26738470537318
INSAT-3DR               
1 41752U 16054A   26162.49519205 -.00000060  00000+0  00000+0 0  9992
2 41752   0.0908  87.1653 0010567 186.8122 238.1118  1.00270275 35764
HIMAWARI-9              
1 41836U 16064A   26162.93623407 -.00000258  00000+0  00000+0 0  9994
2 41836   0.0474 149.5802 0000801 345.9947 242.5235  1.00270955 35154
GOES 16                 
1 41866U 16071A   26162.67376017 -.00000074  00000+0  00000+0 0  9994
2 41866   0.3260  85.5664 0000268 302.7889   9.5344  1.00270209 35043
FENGYUN 4A              
1 41882U 16077A   26162.95350756 -.00000342  00000+0  00000+0 0  9999
2 41882   2.3081  80.3520 0008546 151.7413 135.2467  1.00271644 34877
CYGFM05                 
1 41884U 16078A   26162.79209165  .00022420  00000+0  30645-3 0  9993
2 41884  34.9573 296.3090 0006745  95.1676 264.9818 15.56434566527910
CYGFM04                 
1 41885U 16078B   26162.65149150  .00028433  00000+0  32382-3 0  9996
2 41885  34.9326 265.2073 0006101 141.4023 218.7139 15.61208987528130
CYGFM02                 
1 41886U 16078C   26162.66269799  .00033509  00000+0  33966-3 0  9999
2 41886  34.9406 259.8282 0007084 143.0324 217.0892 15.64149441528303
CYGFM01                 
1 41887U 16078D   26162.78314754  .00024143  00000+0  32174-3 0  9999
2 41887  34.9403 297.4695 0006553  88.2515 271.8959 15.57103834527869
CYGFM08                 
1 41888U 16078E   26162.75184673  .00026636  00000+0  32097-3 0  9995
2 41888  34.9434 277.3981 0007798 123.1377 237.0098 15.59736924528128
CYGFM07                 
1 41890U 16078G   26162.64732887  .00025227  00000+0  30310-3 0  9993
2 41890  34.9451 266.4408 0006431 140.3760 219.7436 15.59833170528138
CYGFM03                 
1 41891U 16078H   26162.68230620  .00026745  00000+0  32134-3 0  9998
2 41891  34.9403 268.1465 0005945 127.6188 232.5077 15.59829046528118
